IRIDIUM 921             
1 24873U 97034E   24317.23468843  .00119903  00000+0  14015-2 0  9997
2 24873  86.3762 213.8815 0007245  69.8723 290.3321 15.61167691498351
IRIDIUM 26              
1 24903U 97043A   24316.99756815  .00001407  00000+0  47057-3 0  9994
2 24903  86.4012 201.7471 0002374  82.7523 277.3944 14.36788893426023
IRIDIUM 22              
1 24907U 97043E   24317.16883597  .00001257  00000+0  42939-3 0  9993
2 24907  86.4015 205.0255 0002121  81.0805 279.0632 14.35642394425624
DUMMY MASS 1            
1 24925U 97048A   24317.36775239  .00001516  00000+0  16789-3 0  9995
2 24925  86.3373 235.4810 0006413 173.2845 186.8467 14.86610697473159
DUMMY MASS 2            
1 24926U 97048B   24317.49591843  .00001507  00000+0  16787-3 0  9995
2 24926  86.3369 236.9901 0006672 187.1092 173.0039 14.86366309472955
IRIDIUM 29              
1 24944U 97051A   24317.47380298  .00001457  00000+0  49411-3 0  9991
2 24944  86.3982 234.7006 0002059  83.8957 276.2474 14.36100411422381
IRIDIUM 33              
1 24946U 97051C   24317.29550784  .00001053  00000+0  36543-3 0  9996
2 24946  86.3899 234.0224 0010039  70.0292 290.1984 14.34643340421653
IRIDIUM 28              
1 24948U 97051E   24317.30980571  .00001444  00000+0  48053-3 0  9994
2 24948  86.3991 232.4088 0002714  81.6744 278.4761 14.37048341422767
